NORAD_CAT_ID,OBJECT_NAME,OBJECT_TYPE,EPOCH,MEAN_MOTION,ECCENTRICITY,INCLINATION,RA_OF_ASC_NODE,ARG_OF_PERICENTER,MEAN_ANOMALY,BSTAR,MEAN_MOTION_DOT,MEAN_MOTION_DDOT,TLE_LINE0,TLE_LINE1,TLE_LINE2,SEMIMAJOR_AXIS,PERIOD,APOGEE,PERIGEE,DECAYED
54002.0,STARLINK-5109,PAYLOAD,2023-12-24 14:13:34,15.08844328,0.0001544,53.2178,222.5744,99.1342,260.9825,2.9994e-05,1.89e-06,0.0,0 STARLINK-5109,1 54002U 22125AQ  23358.59276324  .00000189  00000-0  29994-4 0  9997,2 54002  53.2178 222.5744 0001544  99.1342 260.9825 15.08844328 67915,6917.867,95.437,540.8,538.664,0.0
54002.0,STARLINK-5109,PAYLOAD,2023-12-24 20:35:07,15.08840535,0.0001622,53.2172,221.3817,106.0962,254.0209,-1.2322e-05,-4.84e-06,0.0,0 STARLINK-5109,1 54002U 22125AQ  23358.85772561 -.00000484  00000-0 -12322-4 0  9997,2 54002  53.2172 221.3817 0001622 106.0962 254.0209 15.08840535 68007,6917.879,95.438,540.866,538.622,0.0
54002.0,STARLINK-5109,PAYLOAD,2023-12-24 23:45:53,15.08842079,0.0001688,53.2174,220.7873,112.5172,247.5999,-2.7381e-05,-7.24e-06,0.0,0 STARLINK-5109,1 54002U 22125AQ  23358.99020488 -.00000724  00000-0 -27381-4 0  9994,2 54002  53.2174 220.7873 0001688 112.5172 247.5999 15.08842079 67974,6917.874,95.437,540.907,538.571,0.0
54002.0,STARLINK-5109,PAYLOAD,2023-12-25 22:01:17,15.08841279,0.0001406,53.2165,216.6243,100.0922,260.0229,-1.9481e-05,-5.98e-06,0.0,0 STARLINK-5109,1 54002U 22125AQ  23359.91756698 -.00000598  00000-0 -19481-4 0  9997,2 54002  53.2165 216.6243 0001406 100.0922 260.0229 15.08841279 68116,6917.876,95.437,540.714,538.769,0.0
54002.0,STARLINK-5109,PAYLOAD,2023-12-25 23:36:40,15.08842605,0.0001502,53.2168,216.3268,103.3184,256.7975,-1.2422e-05,-4.86e-06,0.0,0 STARLINK-5109,1 54002U 22125AQ  23359.98380588 -.00000486  00000-0 -12422-4 0  9999,2 54002  53.2168 216.3268 0001502 103.3184 256.7975 15.08842605 68176,6917.872,95.437,540.776,538.698,0.0
54002.0,STARLINK-5109,PAYLOAD,2023-12-26 21:52:05,15.08836604,0.0001447,53.2166,212.1638,94.8068,265.309,6.0974e-05,6.82e-06,0.0,0 STARLINK-5109,1 54002U 22125AQ  23360.91116973  .00000682  00000-0  60974-4 0  9990,2 54002  53.2166 212.1638 0001447  94.8068 265.3090 15.08836604 68268,6917.891,95.438,540.757,538.755,0.0
54002.0,STARLINK-5109,PAYLOAD,2023-12-26 23:27:28,15.0883731,0.0001449,53.216,211.8648,94.4085,265.7073,5.6642e-05,6.14e-06,0.0,0 STARLINK-5109,1 54002U 22125AQ  23360.97740961  .00000614  00000-0  56642-4 0  9998,2 54002  53.2160 211.8648 0001449  94.4085 265.7073 15.08837310 68323,6917.889,95.438,540.756,538.751,0.0
54002.0,STARLINK-5109,PAYLOAD,2023-12-27 21:42:52,15.08839487,0.0001529,53.2167,207.6995,82.5073,277.6093,4.9384e-05,4.98e-06,0.0,0 STARLINK-5109,1 54002U 22125AQ  23361.90477180  .00000498  00000-0  49384-4 0  9997,2 54002  53.2167 207.6995 0001529  82.5073 277.6093 15.08839487 68413,6917.882,95.438,540.805,538.689,0.0
54002.0,STARLINK-5109,PAYLOAD,2023-12-28 19:58:16,15.08840688,0.0001634,53.2166,203.5389,74.1171,286.0001,7.0229e-05,8.3e-06,0.0,0 STARLINK-5109,1 54002U 22125AQ  23362.83213177  .00000830  00000-0  70229-4 0  9996,2 54002  53.2166 203.5389 0001634  74.1171 286.0001 15.08840688 68606,6917.878,95.438,540.874,538.613,0.0
54002.0,STARLINK-5109,PAYLOAD,2023-12-29 19:49:02,15.08843069,0.0001426,53.216,199.0777,91.3183,268.7972,5.7053e-05,6.2e-06,0.0,0 STARLINK-5109,1 54002U 22125AQ  23363.82572813  .00000620  00000-0  57053-4 0  9998,2 54002  53.2160 199.0777 0001426  91.3183 268.7972 15.08843069 68704,6917.871,95.437,540.722,538.75,0.0
54002.0,STARLINK-5109,PAYLOAD,2023-12-30 13:18:17,15.08841487,0.0001483,53.2164,195.8068,91.3226,268.7936,2.4018e-05,9.4e-07,0.0,0 STARLINK-5109,1 54002U 22125AQ  23364.55436965  .00000094  00000-0  24018-4 0  9996,2 54002  53.2164 195.8068 0001483  91.3226 268.7936 15.08841487 68810,6917.876,95.437,540.767,538.715,0.0
54002.0,STARLINK-5109,PAYLOAD,2023-12-30 19:39:50,15.08840946,0.000147,53.2164,194.6162,98.7613,261.3546,1.9618e-05,2.4e-07,0.0,0 STARLINK-5109,1 54002U 22125AQ  23364.81932914  .00000024  00000-0  19618-4 0  9993,2 54002  53.2164 194.6162 0001470  98.7613 261.3546 15.08840946 68904,6917.877,95.437,540.759,538.726,0.0
54002.0,STARLINK-5109,PAYLOAD,2023-12-31 19:30:37,15.08839794,0.0001438,53.2164,190.1563,95.7612,264.3545,1.8157e-05,1e-08,0.0,0 STARLINK-5109,1 54002U 22125AQ  23365.81292931  .00000001  00000-0  18157-4 0  9994,2 54002  53.2164 190.1563 0001438  95.7612 264.3545 15.08839794 69003,6917.881,95.438,540.741,538.751,0.0
54002.0,STARLINK-5109,PAYLOAD,2024-01-01 11:24:28,15.08836059,0.0001446,53.2163,187.1831,99.3883,260.7273,2.2849e-05,7.6e-07,0.0,0 STARLINK-5109,1 54002U 22125AQ  24001.47533198  .00000076  00000-0  22849-4 0  9992,2 54002  53.2163 187.1831 0001446  99.3883 260.7273 15.08836059 69150,6917.892,95.438,540.758,538.757,0.0
54002.0,STARLINK-5109,PAYLOAD,2024-01-01 19:21:24,15.08834007,0.0001381,53.2161,185.6952,98.9093,261.2056,-3.8181e-06,-3.49e-06,0.0,0 STARLINK-5109,1 54002U 22125AQ  24001.80653490 -.00000349  00000-0 -38181-5 0  9999,2 54002  53.2161 185.6952 0001381  98.9093 261.2056 15.08834007 69157,6917.899,95.438,540.719,538.808,0.0
54002.0,STARLINK-5109,PAYLOAD,2024-01-02 19:12:11,15.0883986,0.0001317,53.216,181.2345,92.0151,268.0992,4.0085e-05,3.5e-06,0.0,0 STARLINK-5109,1 54002U 22125AQ  24002.80013233  .00000350  00000-0  40085-4 0  9990,2 54002  53.2160 181.2345 0001317  92.0151 268.0992 15.08839860 69351,6917.881,95.438,540.657,538.835,0.0
54002.0,STARLINK-5109,PAYLOAD,2024-01-02 20:47:34,15.08840132,0.0001315,53.2158,180.9368,89.0498,271.0644,4.1282e-05,3.69e-06,0.0,0 STARLINK-5109,1 54002U 22125AQ  24002.86637211  .00000369  00000-0  41282-4 0  9994,2 54002  53.2158 180.9368 0001315  89.0498 271.0644 15.08840132 69315,6917.88,95.438,540.655,538.835,0.0
54002.0,STARLINK-5109,PAYLOAD,2024-01-03 14:16:49,15.08833553,0.0001292,53.2158,177.6652,89.9819,270.1321,2.2709e-05,7.3e-07,0.0,0 STARLINK-5109,1 54002U 22125AQ  24003.59501794  .00000073  00000-0  22709-4 0  9996,2 54002  53.2158 177.6652 0001292  89.9819 270.1321 15.08833553 69427,6917.9,95.438,540.659,538.871,0.0
54002.0,STARLINK-5109,PAYLOAD,2024-01-03 19:02:58,15.08835616,0.0001311,53.2159,176.7734,87.6909,272.4234,4.0864e-05,3.62e-06,0.0,0 STARLINK-5109,1 54002U 22125AQ  24003.79373685  .00000362  00000-0  40864-4 0  9997,2 54002  53.2159 176.7734 0001311  87.6909 272.4234 15.08835616 69505,6917.894,95.438,540.666,538.852,0.0
54002.0,STARLINK-5109,PAYLOAD,2024-01-04 20:29:08,15.08846537,0.000135,53.2161,172.0152,84.4569,275.6577,6.2646e-05,7.09e-06,0.0,0 STARLINK-5109,1 54002U 22125AQ  24004.85356903  .00000709  00000-0  62646-4 0  9996,2 54002  53.2161 172.0152 0001350  84.4569 275.6577 15.08846537 69667,6917.86,95.437,540.659,538.791,0.0
54002.0,STARLINK-5109,PAYLOAD,2024-01-05 10:47:37,15.08835107,0.0001423,53.2162,169.3381,80.1998,279.9155,1.7928e-05,-3e-08,0.0,0 STARLINK-5109,1 54002U 22125AQ  24005.44973779 -.00000003  00000-0  17928-4 0  9999,2 54002  53.2162 169.3381 0001423  80.1998 279.9155 15.08835107 69751,6917.895,95.438,540.745,538.776,0.0
54002.0,STARLINK-5109,PAYLOAD,2024-01-05 20:19:55,15.08840398,0.0001354,53.216,167.5539,87.4104,272.7043,3.3012e-05,2.38e-06,0.0,0 STARLINK-5109,1 54002U 22125AQ  24005.84717373  .00000238  00000-0  33012-4 0  9990,2 54002  53.2160 167.5539 0001354  87.4104 272.7043 15.08840398 69762,6917.879,95.438,540.681,538.807,0.0
54002.0,STARLINK-5109,PAYLOAD,2024-01-06 20:10:42,15.08842771,0.0001379,53.2162,163.093,92.7426,267.3724,1.1252e-05,-1.09e-06,0.0,0 STARLINK-5109,1 54002U 22125AQ  24006.84077176 -.00000109  00000-0  11252-4 0  9991,2 54002  53.2162 163.0930 0001379  92.7426 267.3724 15.08842771 69913,6917.872,95.437,540.691,538.783,0.0
54002.0,STARLINK-5109,PAYLOAD,2024-01-07 13:39:57,15.08836573,0.0001374,53.2165,159.8215,93.6051,266.5098,2.1413e-06,-2.54e-06,0.0,0 STARLINK-5109,1 54002U 22125AQ  24007.56941703 -.00000254  00000-0  21413-5 0  9999,2 54002  53.2165 159.8215 0001374  93.6051 266.5098 15.08836573 70026,6917.891,95.438,540.706,538.805,0.0
54002.0,STARLINK-5109,PAYLOAD,2024-01-07 16:50:43,15.08837091,0.0001372,53.2167,159.2267,93.3308,266.7841,3.7442e-06,-2.28e-06,0.0,0 STARLINK-5109,1 54002U 22125AQ  24007.70189683 -.00000228  00000-0  37442-5 0  9996,2 54002  53.2167 159.2267 0001372  93.3308 266.7841 15.08837091 70090,6917.889,95.438,540.703,538.805,0.0
54002.0,STARLINK-5109,PAYLOAD,2024-01-07 20:01:30,15.08836781,0.0001374,53.2167,158.632,93.761,266.3539,1.2386e-06,-2.68e-06,0.0,0 STARLINK-5109,1 54002U 22125AQ  24007.83437712 -.00000268  00000-0  12386-5 0  9993,2 54002  53.2167 158.6320 0001374  93.7610 266.3539 15.08836781 70067,6917.89,95.438,540.706,538.805,0.0
54002.0,STARLINK-5109,PAYLOAD,2024-01-08 13:30:44,15.08840053,0.0001426,53.2173,155.3608,99.1219,260.9934,3.1996e-05,2.21e-06,0.0,0 STARLINK-5109,1 54002U 22125AQ  24008.56301480  .00000221  00000-0  31996-4 0  9991,2 54002  53.2173 155.3608 0001426  99.1219 260.9934 15.08840053 70178,6917.88,95.438,540.732,538.759,0.0
54002.0,STARLINK-5109,PAYLOAD,2024-01-08 16:41:30,15.08841207,0.0001404,53.2171,154.7662,93.9724,266.1429,4.0279e-05,3.53e-06,0.0,0 STARLINK-5109,1 54002U 22125AQ  24008.69549398  .00000353  00000-0  40279-4 0  9997,2 54002  53.2171 154.7662 0001404  93.9724 266.1429 15.08841207 70199,6917.877,95.437,540.713,538.77,0.0
54002.0,STARLINK-5109,PAYLOAD,2024-01-09 13:21:33,15.08824297,0.0001471,53.2176,150.9013,103.3094,256.8062,-5.5231e-05,-1.166e-05,0.0,0 STARLINK-5109,1 54002U 22125AQ  24009.55663365 -.00001166  00000-0 -55231-4 0  9993,2 54002  53.2176 150.9013 0001471 103.3094 256.8062 15.08824297 70326,6917.928,95.439,540.811,538.776,0.0
54002.0,STARLINK-5109,PAYLOAD,2024-01-09 19:43:07,15.08805843,0.0001056,53.2169,149.713,98.848,261.2632,-0.0002087,-3.604e-05,0.0,0 STARLINK-5109,1 54002U 22125AQ  24009.82161313 -.00003604  00000-0 -20870-3 0  9998,2 54002  53.2169 149.7130 0001056  98.8480 261.2632 15.08805843 70419,6917.985,95.44,540.58,539.119,0.0
